ORBCOMM FM37 [-]        
1 33064U 08031E   24041.45346237  .00003772  00000+0  57306-3 0  9995
2 33064  48.4396 158.8192 0005088  65.7012  51.8583 14.75863957841174
ORBCOMM FM40 [-]        
1 33065U 08031F   24041.52215132  .00004928  00000+0  71915-3 0  9999
2 33065  48.4420 148.7000 0006293  74.0971  17.8277 14.77071692841211
VESSELSAT 1 [-]         
1 37840U 11058C   24041.76763184  .00000515  00000+0  13690-3 0  9992
2 37840  19.9604 192.9432 0013676 170.5633 189.5029 14.11112922636666
ORBCOMM FM109 [+]       
1 40086U 14040A   24041.50189810  .00002025  00000+0  49038-3 0  9995
2 40086  47.0025 179.7936 0002628 222.7324 137.3356 14.56297340509205
ORBCOMM FM107 [+]       
1 40087U 14040B   24041.81073920  .00002154  00000+0  51910-3 0  9999
2 40087  47.0042 179.2936 0001876 202.2948 157.7856 14.56299441509327
ORBCOMM FM106 [-]       
1 40088U 14040C   24041.34654897  .00003034  00000+0  57235-3 0  9990
2 40088  47.0610  41.2401 0018921 300.1913  59.7102 14.66577297511061
ORBCOMM FM111 [-]       
1 40089U 14040D   24041.86118993  .00004847  00000+0  63881-3 0  9997
2 40089  47.0049 310.2792 0033279   3.5991 356.5138 14.81027567517120
ORBCOMM FM104 [-]       
1 40090U 14040E   24041.82959466  .00001804  00000+0  45419-3 0  9990
2 40090  47.0037 207.1393 0016735 118.8956 241.3610 14.54851599508888
